[{"OBJECT_NAME":"TIANQI-22","OBJECT_ID":"2023-135B","EPOCH":"2026-03-09T19:41:12.033888","MEAN_MOTION":14.23087857,"ECCENTRICITY":0.00131339,"INCLINATION":49.9676,"RA_OF_ASC_NODE":210.6305,"ARG_OF_PERICENTER":271.8708,"MEAN_ANOMALY":88.07,"EPHEMERIS_TYPE":0,"CLASSIFICATION_TYPE":"U","NORAD_CAT_ID":57793,"ELEMENT_SET_NO":999,"REV_AT_EPOCH":13047,"BSTAR":9.8333486e-5,"MEAN_MOTION_DOT":6.4e-7,"MEAN_MOTION_DDOT":0},{"OBJECT_NAME":"DMSP 5D-2 F13 DEB","OBJECT_ID":"1995-015BX","EPOCH":"2026-03-09T00:46:41.887200","MEAN_MOTION":14.22244329,"ECCENTRICITY":0.00025114,"INCLINATION":98.7649,"RA_OF_ASC_NODE":88.6954,"ARG_OF_PERICENTER":342.6841,"MEAN_ANOMALY":17.4251,"EPHEMERIS_TYPE":0,"CLASSIFICATION_TYPE":"U","NORAD_CAT_ID":40479,"ELEMENT_SET_NO":999,"REV_AT_EPOCH":56884,"BSTAR":0.00063057795,"MEAN_MOTION_DOT":1.356e-5,"MEAN_MOTION_DDOT":0}]
